[{"OBJECT_NAME":"ALOS (DAICHI)","OBJECT_ID":"2006-002A","EPOCH":"2026-03-28T10:16:12.730368","MEAN_MOTION":14.69865987,"ECCENTRICITY":8.638e-5,"INCLINATION":98.1247,"RA_OF_ASC_NODE":43.2937,"ARG_OF_PERICENTER":106.4422,"MEAN_ANOMALY":253.6879,"EPHEMERIS_TYPE":0,"CLASSIFICATION_TYPE":"U","NORAD_CAT_ID":28931,"ELEMENT_SET_NO":999,"REV_AT_EPOCH":7623,"BSTAR":0.00024883495,"MEAN_MOTION_DOT":1.438e-5,"MEAN_MOTION_DDOT":0},{"OBJECT_NAME":"H-2A R/B","OBJECT_ID":"2006-002B","EPOCH":"2026-03-28T09:54:22.372416","MEAN_MOTION":15.16827933,"ECCENTRICITY":0.00523888,"INCLINATION":98.2444,"RA_OF_ASC_NODE":236.0565,"ARG_OF_PERICENTER":176.9793,"MEAN_ANOMALY":183.1765,"EPHEMERIS_TYPE":0,"CLASSIFICATION_TYPE":"U","NORAD_CAT_ID":28932,"ELEMENT_SET_NO":999,"REV_AT_EPOCH":9727,"BSTAR":0.00063649237,"MEAN_MOTION_DOT":0.00012896,"MEAN_MOTION_DDOT":0},{"OBJECT_NAME":"RESURS-DK 1","OBJECT_ID":"2006-021A","EPOCH":"2026-03-28T13:52:50.520000","MEAN_MOTION":15.12862078,"ECCENTRICITY":0.00011993,"INCLINATION":69.9338,"RA_OF_ASC_NODE":188.1622,"ARG_OF_PERICENTER":53.9146,"MEAN_ANOMALY":306.2131,"EPHEMERIS_TYPE":0,"CLASSIFICATION_TYPE":"U","NORAD_CAT_ID":29228,"ELEMENT_SET_NO":999,"REV_AT_EPOCH":9038,"BSTAR":0.00015126078,"MEAN_MOTION_DOT":2.559e-5,"MEAN_MOTION_DDOT":0},{"OBJECT_NAME":"CZ-4B R/B","OBJECT_ID":"2006-046C","EPOCH":"2026-03-28T14:32:53.686752","MEAN_MOTION":15.1709046,"ECCENTRICITY":0.00327169,"INCLINATION":97.556,"RA_OF_ASC_NODE":132.4629,"ARG_OF_PERICENTER":199.3833,"MEAN_ANOMALY":160.6159,"EPHEMERIS_TYPE":0,"CLASSIFICATION_TYPE":"U","NORAD_CAT_ID":29507,"ELEMENT_SET_NO":999,"REV_AT_EPOCH":6291,"BSTAR":0.00027551049,"MEAN_MOTION_DOT":5.463e-5,"MEAN_MOTION_DDOT":0},{"OBJECT_NAME":"CZ-2C R/B","OBJECT_ID":"2007-010B","EPOCH":"2026-03-28T12:51:59.730336","MEAN_MOTION":14.20252853,"ECCENTRICITY":0.0058072,"INCLINATION":98.3998,"RA_OF_ASC_NODE":199.8721,"ARG_OF_PERICENTER":238.7731,"MEAN_ANOMALY":120.7748,"EPHEMERIS_TYPE":0,"CLASSIFICATION_TYPE":"U","NORAD_CAT_ID":31114,"ELEMENT_SET_NO":999,"REV_AT_EPOCH":98239,"BSTAR":8.0999e-5,"MEAN_MOTION_DOT":1.35e-6,"MEAN_MOTION_DDOT":0},{"OBJECT_NAME":"COSMO-SKYMED 1","OBJECT_ID":"2007-023A","EPOCH":"2026-03-28T14:03:16.348032","MEAN_MOTION":14.96668274,"ECCENTRICITY":9.61e-5,"INCLINATION":97.8875,"RA_OF_ASC_NODE":278.7719,"ARG_OF_PERICENTER":99.7926,"MEAN_ANOMALY":260.3404,"EPHEMERIS_TYPE":0,"CLASSIFICATION_TYPE":"U","NORAD_CAT_ID":31598,"ELEMENT_SET_NO":999,"REV_AT_EPOCH":1773,"BSTAR":0.00031875661,"MEAN_MOTION_DOT":3.577e-5,"MEAN_MOTION_DDOT":0},{"OBJECT_NAME":"COSMOS 2428","OBJECT_ID":"2007-029A","EPOCH":"2026-03-28T13:53:08.517984","MEAN_MOTION":14.12948325,"ECCENTRICITY":0.00096983,"INCLINATION":70.9434,"RA_OF_ASC_NODE":163.6998,"ARG_OF_PERICENTER":257.637,"MEAN_ANOMALY":102.3666,"EPHEMERIS_TYPE":0,"CLASSIFICATION_TYPE":"U","NORAD_CAT_ID":31792,"ELEMENT_SET_NO":999,"REV_AT_EPOCH":96676,"BSTAR":4.871848e-6,"MEAN_MOTION_DOT":-3.9e-7,"MEAN_MOTION_DDOT":0},{"OBJECT_NAME":"SL-16 R/B","OBJECT_ID":"2007-029B","EPOCH":"2026-03-28T14:12:46.156896","MEAN_MOTION":14.1484343,"ECCENTRICITY":0.00027091,"INCLINATION":70.9748,"RA_OF_ASC_NODE":132.6519,"ARG_OF_PERICENTER":277.8759,"MEAN_ANOMALY":194.624,"EPHEMERIS_TYPE":0,"CLASSIFICATION_TYPE":"U","NORAD_CAT_ID":31793,"ELEMENT_SET_NO":999,"REV_AT_EPOCH":96804,"BSTAR":4.4594628e-5,"MEAN_MOTION_DOT":3.8e-7,"MEAN_MOTION_DDOT":0},{"OBJECT_NAME":"KORONAS-FOTON","OBJECT_ID":"2009-003A","EPOCH":"2026-03-28T11:59:14.926848","MEAN_MOTION":15.43816881,"ECCENTRICITY":0.001178,"INCLINATION":82.4276,"RA_OF_ASC_NODE":256.3122,"ARG_OF_PERICENTER":88.8252,"MEAN_ANOMALY":271.4344,"EPHEMERIS_TYPE":0,"CLASSIFICATION_TYPE":"U","NORAD_CAT_ID":33504,"ELEMENT_SET_NO":999,"REV_AT_EPOCH":94864,"BSTAR":0.00035436,"MEAN_MOTION_DOT":0.00016135,"MEAN_MOTION_DDOT":0},{"OBJECT_NAME":"CZ-2C R/B","OBJECT_ID":"2011-030B","EPOCH":"2026-03-28T14:45:40.210272","MEAN_MOTION":14.81287183,"ECCENTRICITY":0.00511179,"INCLINATION":97.8575,"RA_OF_ASC_NODE":44.5041,"ARG_OF_PERICENTER":289.4659,"MEAN_ANOMALY":244.441,"EPHEMERIS_TYPE":0,"CLASSIFICATION_TYPE":"U","NORAD_CAT_ID":37731,"ELEMENT_SET_NO":999,"REV_AT_EPOCH":79289,"BSTAR":0.00019998822,"MEAN_MOTION_DOT":1.539e-5,"MEAN_MOTION_DDOT":0},{"OBJECT_NAME":"H-2A R/B","OBJECT_ID":"2012-025E","EPOCH":"2026-03-28T11:11:12.840576","MEAN_MOTION":14.95298054,"ECCENTRICITY":0.00427336,"INCLINATION":98.4761,"RA_OF_ASC_NODE":56.0209,"ARG_OF_PERICENTER":250.7783,"MEAN_ANOMALY":108.881,"EPHEMERIS_TYPE":0,"CLASSIFICATION_TYPE":"U","NORAD_CAT_ID":38341,"ELEMENT_SET_NO":999,"REV_AT_EPOCH":75102,"BSTAR":0.00033845461,"MEAN_MOTION_DOT":3.727e-5,"MEAN_MOTION_DDOT":0},{"OBJECT_NAME":"SHIJIAN-16 (SJ-16)","OBJECT_ID":"2013-057A","EPOCH":"2026-03-28T14:24:46.362240","MEAN_MOTION":14.92420597,"ECCENTRICITY":0.00152377,"INCLINATION":74.9724,"RA_OF_ASC_NODE":149.29,"ARG_OF_PERICENTER":63.5292,"MEAN_ANOMALY":296.7458,"EPHEMERIS_TYPE":0,"CLASSIFICATION_TYPE":"U","NORAD_CAT_ID":39358,"ELEMENT_SET_NO":999,"REV_AT_EPOCH":67432,"BSTAR":0.00018655531,"MEAN_MOTION_DOT":1.887e-5,"MEAN_MOTION_DDOT":0},{"OBJECT_NAME":"SL-4 R/B","OBJECT_ID":"2014-021B","EPOCH":"2026-03-28T10:53:28.964544","MEAN_MOTION":15.39818811,"ECCENTRICITY":0.0095626,"INCLINATION":51.6044,"RA_OF_ASC_NODE":245.6935,"ARG_OF_PERICENTER":171.3669,"MEAN_ANOMALY":188.8987,"EPHEMERIS_TYPE":0,"CLASSIFICATION_TYPE":"U","NORAD_CAT_ID":39679,"ELEMENT_SET_NO":999,"REV_AT_EPOCH":65916,"BSTAR":0.00045819869,"MEAN_MOTION_DOT":0.00021313,"MEAN_MOTION_DDOT":0},{"OBJECT_NAME":"ALOS-2","OBJECT_ID":"2014-029A","EPOCH":"2026-03-28T14:07:07.317696","MEAN_MOTION":14.7944603,"ECCENTRICITY":0.00019284,"INCLINATION":97.9186,"RA_OF_ASC_NODE":185.9108,"ARG_OF_PERICENTER":102.7367,"MEAN_ANOMALY":257.406,"EPHEMERIS_TYPE":0,"CLASSIFICATION_TYPE":"U","NORAD_CAT_ID":39766,"ELEMENT_SET_NO":999,"REV_AT_EPOCH":63966,"BSTAR":0.00026886408,"MEAN_MOTION_DOT":1.956e-5,"MEAN_MOTION_DDOT":0},{"OBJECT_NAME":"YAOGAN-29","OBJECT_ID":"2015-069A","EPOCH":"2026-03-28T14:51:28.323648","MEAN_MOTION":14.8301357,"ECCENTRICITY":5.091e-5,"INCLINATION":98.0123,"RA_OF_ASC_NODE":116.0975,"ARG_OF_PERICENTER":0.4025,"MEAN_ANOMALY":359.7188,"EPHEMERIS_TYPE":0,"CLASSIFICATION_TYPE":"U","NORAD_CAT_ID":41038,"ELEMENT_SET_NO":999,"REV_AT_EPOCH":55868,"BSTAR":1.8890434e-5,"MEAN_MOTION_DOT":9.9e-7,"MEAN_MOTION_DDOT":0},{"OBJECT_NAME":"ASTRO-H (HITOMI)","OBJECT_ID":"2016-012A","EPOCH":"2026-03-28T11:20:33.853056","MEAN_MOTION":15.10120215,"ECCENTRICITY":0.00096276,"INCLINATION":30.9987,"RA_OF_ASC_NODE":235.3252,"ARG_OF_PERICENTER":160.8591,"MEAN_ANOMALY":199.241,"EPHEMERIS_TYPE":0,"CLASSIFICATION_TYPE":"U","NORAD_CAT_ID":41337,"ELEMENT_SET_NO":999,"REV_AT_EPOCH":55507,"BSTAR":0.00019733466,"MEAN_MOTION_DOT":3.394e-5,"MEAN_MOTION_DDOT":0},{"OBJECT_NAME":"HXMT (HUIYAN)","OBJECT_ID":"2017-034A","EPOCH":"2026-03-28T14:26:06.641664","MEAN_MOTION":15.17697736,"ECCENTRICITY":0.0031927,"INCLINATION":43.0138,"RA_OF_ASC_NODE":271.5127,"ARG_OF_PERICENTER":351.752,"MEAN_ANOMALY":8.28,"EPHEMERIS_TYPE":0,"CLASSIFICATION_TYPE":"U","NORAD_CAT_ID":42758,"ELEMENT_SET_NO":999,"REV_AT_EPOCH":48541,"BSTAR":0.00028805835,"MEAN_MOTION_DOT":5.75e-5,"MEAN_MOTION_DDOT":0}]
