ALOS (DAICHI)           
1 28931U 06002A   26087.42792512  .00001438  00000+0  24883-3 0  9999
2 28931  98.1247  43.2937 0000863 106.4422 253.6879 14.69865987 76231
H-2A R/B                
1 28932U 06002B   26087.41275894  .00012896  00000+0  63649-3 0  9991
2 28932  98.2444 236.0565 0052388 176.9793 183.1765 15.16827933 97273
RESURS-DK 1             
1 29228U 06021A   26087.57836250  .00002559  00000+0  15126-3 0  9999
2 29228  69.9338 188.1622 0001199  53.9146 306.2131 15.12862078 90385
CZ-4B R/B               
1 29507U 06046C   26087.60617693  .00005463  00000+0  27551-3 0  9990
2 29507  97.5560 132.4629 0032716 199.3833 160.6159 15.17090460 62918
CZ-2C R/B               
1 31114U 07010B   26087.53610799  .00000135  00000+0  80999-4 0  9998
2 31114  98.3998 199.8721 0058072 238.7731 120.7748 14.20252853982390
COSMO-SKYMED 1          
1 31598U 07023A   26087.58560588  .00003577  00000+0  31876-3 0  9995
2 31598  97.8875 278.7719 0000961  99.7926 260.3404 14.96668274 17731
COSMOS 2428             
1 31792U 07029A   26087.57857081 -.00000039  00000+0  48718-5 0  9999
2 31792  70.9434 163.6998 0009698 257.6370 102.3666 14.12948325966762
SL-16 R/B               
1 31793U 07029B   26087.59220089  .00000038  00000+0  44595-4 0  9990
2 31793  70.9748 132.6519 0002709 277.8759 194.6240 14.14843430968045
KORONAS-FOTON           
1 33504U 09003A   26087.49947832  .00016135  00000+0  35436-3 0  9995
2 33504  82.4276 256.3122 0011780  88.8252 271.4344 15.43816881948648
CZ-2C R/B               
1 37731U 11030B   26087.61504873  .00001539  00000+0  19999-3 0  9990
2 37731  97.8575  44.5041 0051117 289.4659 244.4410 14.81287183792897
H-2A R/B                
1 38341U 12025E   26087.46612084  .00003727  00000+0  33845-3 0  9997
2 38341  98.4761  56.0209 0042733 250.7783 108.8810 14.95298054751027
SHIJIAN-16 (SJ-16)      
1 39358U 13057A   26087.60053660  .00001887  00000+0  18656-3 0  9995
2 39358  74.9724 149.2900 0015237  63.5292 296.7458 14.92420597674329
SL-4 R/B                
1 39679U 14021B   26087.45380746  .00021313  00000+0  45820-3 0  9993
2 39679  51.6044 245.6935 0095626 171.3669 188.8987 15.39818811659162
ALOS-2                  
1 39766U 14029A   26087.58827914  .00001956  00000+0  26886-3 0  9997
2 39766  97.9186 185.9108 0001928 102.7367 257.4060 14.79446030639663
YAOGAN-29               
1 41038U 15069A   26087.61907782  .00000099  00000+0  18890-4 0  9997
2 41038  98.0123 116.0975 0000509   0.4025 359.7188 14.83013570558680
ASTRO-H (HITOMI)        
1 41337U 16012A   26087.47261404  .00003394  00000+0  19733-3 0  9993
2 41337  30.9987 235.3252 0009627 160.8591 199.2410 15.10120215555078
HXMT (HUIYAN)           
1 42758U 17034A   26087.60146576  .00005750  00000+0  28806-3 0  9992
2 42758  43.0138 271.5127 0031927 351.7520   8.2800 15.17697736485419
